{
    "links": {
        "self": "http://www.neowsapp.com/rest/v1/neo/3892684?api_key=iIulBulltgU6a56xZRHN4H3l9WmuAYTsLGpBGhQ2"
    },
    "id": "3892684",
    "neo_reference_id": "3892684",
    "name": "(2019 VZ2)",
    "designation": "2019 VZ2",
    "nasa_jpl_url": "http://ssd.jpl.nasa.gov/sbdb.cgi?sstr=3892684",
    "absolute_magnitude_h": 25.9,
    "estimated_diameter": {
        "kilometers": {
            "estimated_diameter_min": 0.0175612318,
            "estimated_diameter_max": 0.0392681082
        },
        "meters": {
            "estimated_diameter_min": 17.561231848,
            "estimated_diameter_max": 39.2681081809
        },
        "miles": {
            "estimated_diameter_min": 0.0109120402,
            "estimated_diameter_max": 0.0244000636
        },
        "feet": {
            "estimated_diameter_min": 57.6155918963,
            "estimated_diameter_max": 128.8323800441
        }
    },
    "is_potentially_hazardous_asteroid": false,
    "close_approach_data": [
        {
            "close_approach_date": "2019-10-31",
            "close_approach_date_full": "2019-Oct-31 22:35",
            "epoch_date_close_approach": 1572561300000,
            "relative_velocity": {
                "kilometers_per_second": "8.7276601356",
                "kilometers_per_hour": "31419.5764881402",
                "miles_per_hour": "19522.9029573113"
            },
            "miss_distance": {
                "astronomical": "0.0358396778",
                "lunar": "13.9416346642",
                "kilometers": "5361539.460366286",
                "miles": "3331506.1366793068"
            },
            "orbiting_body": "Earth"
        }
    ],
    "orbital_data": {
        "orbit_id": "1",
        "orbit_determination_date": "2019-11-06 13:42:21",
        "first_observation_date": "2019-11-01",
        "last_observation_date": "2019-11-06",
        "data_arc_in_days": 5,
        "observations_used": 25,
        "orbit_uncertainty": "8",
        "minimum_orbit_intersection": ".0358359",
        "jupiter_tisserand_invariant": "3.315",
        "epoch_osculation": "2458790.5",
        "eccentricity": ".5650206791921644",
        "semi_major_axis": "2.34486219740028",
        "inclination": "8.54483802428777",
        "ascending_node_longitude": "223.9468008161179",
        "orbital_period": "1311.518480920973",
        "perihelion_distance": "1.019966566013143",
        "perihelion_argument": "164.5868652089083",
        "aphelion_distance": "3.669757828787418",
        "perihelion_time": "2458780.613413772937",
        "mean_anomaly": "2.713778794213683",
        "mean_motion": ".2744909852487943",
        "equinox": "J2000",
        "orbit_class": {
            "orbit_class_type": "AMO",
            "orbit_class_description": "Near-Earth asteroid orbits similar to that of 1221 Amor",
            "orbit_class_range": "1.017 AU < q (perihelion) < 1.3 AU"
        }
    },
    "is_sentry_object": false
}